GOES 14                 
1 35491U 09033A   26115.17327398 -.00000054  00000+0  00000+0 0  9990
2 35491   1.5551  83.6445 0001692 309.6270  53.7941  1.00116171  6065
EWS-G2 (GOES 15)        
1 36411U 10008A   26115.15178057  .00000009  00000+0  00000+0 0  9990
2 36411   1.1381  83.8104 0003845  23.8020 223.4563  1.00272177 59107
GOES 16                 
1 41866U 16071A   26115.18982737 -.00000105  00000+0  00000+0 0  9995
2 41866   0.2085  85.2367 0001567 246.7066 204.8935  1.00271002 34576
GOES 17                 
1 43226U 18022A   26115.17507140 -.00000196  00000+0  00000+0 0  9995
2 43226   0.8035  86.4137 0000698 269.4330 190.8811  1.00271363 29893
GOES 18                 
1 51850U 22021A   26115.11217374  .00000082  00000+0  00000+0 0  9995
2 51850   0.0510  59.3996 0000355  23.6572  33.4510  1.00272076  6069
GOES 19                 
1 60133U 24119A   26115.23864181 -.00000262  00000+0  00000+0 0  9997
2 60133   0.0285  87.3832 0000530 356.6211 139.9633  1.00270358  6436
